{"type": "FeatureCollection", "features": [ {"type": "Feature", "properties": {"norad_id": 66639, "name": "STARLINK-35908", "group": "last-30-days", "lat": 52.98584020341624, "lon": -67.78086080800085, "alt_km": 385.41717659997175, "timestamp": "2025-12-10T20:49:51.345863+00:00", "meta": {"OBJECT_NAME": "STARLINK-35908", "OBJECT_ID": "2025-271Y", "EPOCH": "2025-12-10T14:00:03.000384", "MEAN_MOTION": 15.59332015, "ECCENTRICITY": 9.148e-05, "INCLINATION": 53.1602, "RA_OF_ASC_NODE": 197.533, "ARG_OF_PERICENTER": 102.3227, "MEAN_ANOMALY": 193.4905, "EPHEMERIS_TYPE": 0, "CLASSIFICATION_TYPE": "U", "NORAD_CAT_ID": 66639, "ELEMENT_SET_NO": 999, "REV_AT_EPOCH": 389, "BSTAR": -0.027913859, "MEAN_MOTION_DOT": -0.01970202, "MEAN_MOTION_DDOT": 0}, "tle": {"line1": "1 66639U 25271Y   25344.58336806 -.01970202  00000+0 -27914-1 0  9990", "line2": "2 66639  53.1602 197.5330 0000914 102.3227 193.4905 15.59332015  3893"}}, "geometry": {"type": "Point", "coordinates": [-67.78086080800085, 52.98584020341624]}}, {"type": "Feature", "properties": {"norad_id": 66640, "name": "STARLINK-35921", "group": "last-30-days", "lat": 52.781081078829764, "lon": -64.61833930862696, "alt_km": 385.388299680164, "timestamp": "2025-12-10T20:49:51.345873+00:00", "meta": {"OBJECT_NAME": "STARLINK-35921", "OBJECT_ID": "2025-271Z", "EPOCH": "2025-12-10T14:00:03.000384", "MEAN_MOTION": 15.59338412, "ECCENTRICITY": 0.00010608, "INCLINATION": 53.1601, "RA_OF_ASC_NODE": 197.5296, "ARG_OF_PERICENTER": 126.1402, "MEAN_ANOMALY": 171.5885, "EPHEMERIS_TYPE": 0, "CLASSIFICATION_TYPE": "U", "NORAD_CAT_ID": 66640, "ELEMENT_SET_NO": 999, "REV_AT_EPOCH": 389, "BSTAR": -0.028099579, "MEAN_MOTION_DOT": -0.01982224, "MEAN_MOTION_DDOT": 0}, "tle": {"line1": "1 66640U 25271Z   25344.58336806 -.01982224  00000+0 -28100-1 0  9997", "line2": "2 66640  53.1601 197.5296 0001060 126.1402 171.5885 15.59338412  3898"}}, "geometry": {"type": "Point", "coordinates": [-64.61833930862696, 52.781081078829764]}}, {"type": "Feature", "properties": {"norad_id": 66641, "name": "STARLINK-35923", "group": "last-30-days", "lat": 51.15147287995676, "lon": -52.434878695867134, "alt_km": 385.666269886804, "timestamp": "2025-12-10T20:49:51.345886+00:00", "meta": {"OBJECT_NAME": "STARLINK-35923", "OBJECT_ID": "2025-271AA", "EPOCH": "2025-12-10T14:00:03.000384", "MEAN_MOTION": 15.59339206, "ECCENTRICITY": 8.726e-05, "INCLINATION": 53.1603, "RA_OF_ASC_NODE": 197.5123, "ARG_OF_PERICENTER": 106.078, "MEAN_ANOMALY": 199.3192, "EPHEMERIS_TYPE": 0, "CLASSIFICATION_TYPE": "U", "NORAD_CAT_ID": 66641, "ELEMENT_SET_NO": 999, "REV_AT_EPOCH": 389, "BSTAR": -0.028122958, "MEAN_MOTION_DOT": -0.01983595, "MEAN_MOTION_DDOT": 0}, "tle": {"line1": "1 66641U 25271AA  25344.58336806 -.01983595  00000+0 -28123-1 0  9995", "line2": "2 66641  53.1603 197.5123 0000872 106.0780 199.3192 15.59339206  3897"}}, "geometry": {"type": "Point", "coordinates": [-52.434878695867134, 51.15147287995676]}}, {"type": "Feature", "properties": {"norad_id": 66642, "name": "STARLINK-35926", "group": "last-30-days", "lat": 51.67589811186641, "lon": -55.39224106394374, "alt_km": 385.586181363009, "timestamp": "2025-12-10T20:49:51.345898+00:00", "meta": {"OBJECT_NAME": "STARLINK-35926", "OBJECT_ID": "2025-271AB", "EPOCH": "2025-12-10T14:00:03.000384", "MEAN_MOTION": 15.59332353, "ECCENTRICITY": 8.577e-05, "INCLINATION": 53.1603, "RA_OF_ASC_NODE": 197.5174, "ARG_OF_PERICENTER": 100.8727, "MEAN_ANOMALY": 202.6093, "EPHEMERIS_TYPE": 0, "CLASSIFICATION_TYPE": "U", "NORAD_CAT_ID": 66642, "ELEMENT_SET_NO": 999, "REV_AT_EPOCH": 365, "BSTAR": -0.02794785, "MEAN_MOTION_DOT": -0.01972291, "MEAN_MOTION_DDOT": 0}, "tle": {"line1": "1 66642U 25271AB  25344.58336806 -.01972291  00000+0 -27948-1 0  9991", "line2": "2 66642  53.1603 197.5174 0000857 100.8727 202.6093 15.59332353  3658"}}, "geometry": {"type": "Point", "coordinates": [-55.39224106394374, 51.67589811186641]}}, {"type": "Feature", "properties": {"norad_id": 66643, "name": "STARLINK-35918", "group": "last-30-days", "lat": 52.49328115135659, "lon": -61.493161427238384, "alt_km": 385.40617823318644, "timestamp": "2025-12-10T20:49:51.345908+00:00", "meta": {"OBJECT_NAME": "STARLINK-35918", "OBJECT_ID": "2025-271AC", "EPOCH": "2025-12-10T14:00:03.000384", "MEAN_MOTION": 15.59336382, "ECCENTRICITY": 0.00010681, "INCLINATION": 53.1602, "RA_OF_ASC_NODE": 197.5257, "ARG_OF_PERICENTER": 125.3502, "MEAN_ANOMALY": 174.2964, "EPHEMERIS_TYPE": 0, "CLASSIFICATION_TYPE": "U", "NORAD_CAT_ID": 66643, "ELEMENT_SET_NO": 999, "REV_AT_EPOCH": 389, "BSTAR": -0.028058244, "MEAN_MOTION_DOT": -0.01979536, "MEAN_MOTION_DDOT": 0}, "tle": {"line1": "1 66643U 25271AC  25344.58336806 -.01979536  00000+0 -28058-1 0  9994", "line2": "2 66643  53.1602 197.5257 0001068 125.3502 174.2964 15.59336382  3891"}}, "geometry": {"type": "Point", "coordinates": [-61.493161427238384, 52.49328115135659]}}, {"type": "Feature", "properties": {"norad_id": 66644, "name": "STARLINK-35938", "group": "last-30-days", "lat": 52.124132146248506, "lon": -58.41623410835634, "alt_km": 385.46070569761105, "timestamp": "2025-12-10T20:49:51.345918+00:00", "meta": {"OBJECT_NAME": "STARLINK-35938", "OBJECT_ID": "2025-271AD", "EPOCH": "2025-12-10T14:00:03.000384", "MEAN_MOTION": 15.59333944, "ECCENTRICITY": 0.00010486, "INCLINATION": 53.1601, "RA_OF_ASC_NODE": 197.5216, "ARG_OF_PERICENTER": 126.4078, "MEAN_ANOMALY": 175.1556, "EPHEMERIS_TYPE": 0, "CLASSIFICATION_TYPE": "U", "NORAD_CAT_ID": 66644, "ELEMENT_SET_NO": 999, "REV_AT_EPOCH": 389, "BSTAR": -0.027985059, "MEAN_MOTION_DOT": -0.0197483, "MEAN_MOTION_DDOT": 0}, "tle": {"line1": "1 66644U 25271AD  25344.58336806 -.01974830  00000+0 -27985-1 0  9995", "line2": "2 66644  53.1601 197.5216 0001048 126.4078 175.1556 15.59333944  3892"}}, "geometry": {"type": "Point", "coordinates": [-58.41623410835634, 52.124132146248506]}}, {"type": "Feature", "properties": {"norad_id": 66645, "name": "SHENZHOU-22", "group": "last-30-days", "lat": 35.52399466822914, "lon": 82.01233031486176, "alt_km": 380.4564751009166, "timestamp": "2025-12-10T20:49:51.345928+00:00", "meta": {"OBJECT_NAME": "SHENZHOU-22", "OBJECT_ID": "2025-272A", "EPOCH": "2025-12-10T14:25:11.377632", "MEAN_MOTION": 15.59037498, "ECCENTRICITY": 0.00087682, "INCLINATION": 41.4683, "RA_OF_ASC_NODE": 29.6917, "ARG_OF_PERICENTER": 13.0632, "MEAN_ANOMALY": 347.0432, "EPHEMERIS_TYPE": 0, "CLASSIFICATION_TYPE": "U", "NORAD_CAT_ID": 66645, "ELEMENT_SET_NO": 999, "REV_AT_EPOCH": 26357, "BSTAR": 0.00043760673, "MEAN_MOTION_DOT": 0.00034963, "MEAN_MOTION_DDOT": 0}, "tle": {"line1": "1 66645U 25272A   25344.60082613  .00034963  00000+0  43761-3 0  9997", "line2": "2 66645  41.4683  29.6917 0008768  13.0632 347.0432 15.59037498263570"}}, "geometry": {"type": "Point", "coordinates": [82.01233031486176, 35.52399466822914]}}, {"type": "Feature", "properties": {"norad_id": 66647, "name": "COSMOS 2597 (RODNIK-S 22)", "group": "last-30-days", "lat": 23.98733439917246, "lon": -69.02786503462166, "alt_km": 1497.6021350315496, "timestamp": "2025-12-10T20:49:51.345938+00:00", "meta": {"OBJECT_NAME": "COSMOS 2597 (RODNIK-S 22)", "OBJECT_ID": "2025-273A", "EPOCH": "2025-12-10T14:54:03.174048", "MEAN_MOTION": 12.41951299, "ECCENTRICITY": 0.00079363, "INCLINATION": 82.4985, "RA_OF_ASC_NODE": 287.7647, "ARG_OF_PERICENTER": 294.2078, "MEAN_ANOMALY": 65.8171, "EPHEMERIS_TYPE": 0, "CLASSIFICATION_TYPE": "U", "NORAD_CAT_ID": 66647, "ELEMENT_SET_NO": 999, "REV_AT_EPOCH": 187, "BSTAR": 0.00024564696, "MEAN_MOTION_DOT": 4.3e-07, "MEAN_MOTION_DDOT": 0}, "tle": {"line1": "1 66647U 25273A   25344.62087007  .00000043  00000+0  24565-3 0  9997", "line2": "2 66647  82.4985 287.7647 0007936 294.2078  65.8171 12.41951299  1872"}}, "geometry": {"type": "Point", "coordinates": [-69.02786503462166, 23.98733439917246]}}, {"type": "Feature", "properties": {"norad_id": 66648, "name": "COSMOS 2598 (RODNIK-S 23)", "group": "last-30-days", "lat": 50.69865971322939, "lon": -63.129509484164906, "alt_km": 1494.9303065142494, "timestamp": "2025-12-10T20:49:51.345948+00:00", "meta": {"OBJECT_NAME": "COSMOS 2598 (RODNIK-S 23)", "OBJECT_ID": "2025-273B", "EPOCH": "2025-12-10T14:45:34.830144", "MEAN_MOTION": 12.42861578, "ECCENTRICITY": 0.00072461, "INCLINATION": 82.5033, "RA_OF_ASC_NODE": 287.7712, "ARG_OF_PERICENTER": 256.3137, "MEAN_ANOMALY": 103.7137, "EPHEMERIS_TYPE": 0, "CLASSIFICATION_TYPE": "U", "NORAD_CAT_ID": 66648, "ELEMENT_SET_NO": 999, "REV_AT_EPOCH": 187, "BSTAR": 0.00011961638, "MEAN_MOTION_DOT": 2.6e-07, "MEAN_MOTION_DDOT": 0}, "tle": {"line1": "1 66648U 25273B   25344.61498646  .00000026  00000+0  11962-3 0  9990", "line2": "2 66648  82.5033 287.7712 0007246 256.3137 103.7137 12.42861578  1875"}}, "geometry": {"type": "Point", "coordinates": [-63.129509484164906, 50.69865971322939]}}, {"type": "Feature", "properties": {"norad_id": 66649, "name": "COSMOS 2599 (RODNIK-S 24)", "group": "last-30-days", "lat": 8.827449450670294, "lon": -71.20088879563842, "alt_km": 1498.2596530646406, "timestamp": "2025-12-10T20:49:51.345964+00:00", "meta": {"OBJECT_NAME": "COSMOS 2599 (RODNIK-S 24)", "OBJECT_ID": "2025-273C", "EPOCH": "2025-12-10T09:10:48.874368", "MEAN_MOTION": 12.41671984, "ECCENTRICITY": 0.00081363, "INCLINATION": 82.5026, "RA_OF_ASC_NODE": 287.9284, "ARG_OF_PERICENTER": 305.4049, "MEAN_ANOMALY": 54.6269, "EPHEMERIS_TYPE": 0, "CLASSIFICATION_TYPE": "U", "NORAD_CAT_ID": 66649, "ELEMENT_SET_NO": 999, "REV_AT_EPOCH": 184, "BSTAR": 0.00040009668, "MEAN_MOTION_DOT": 6.4e-07, "MEAN_MOTION_DDOT": 0}, "tle": {"line1": "1 66649U 25273C   25344.38251012  .00000064  00000+0  40010-3 0  9997", "line2": "2 66649  82.5026 287.9284 0008136 305.4049  54.6269 12.41671984  1847"}}, "geometry": {"type": "Point", "coordinates": [-71.20088879563842, 8.827449450670294]}}]}